[{"OBJECT_NAME":"STARLINK-33593","OBJECT_ID":"2025-015Y","EPOCH":"2026-03-09T22:44:20.185440","MEAN_MOTION":15.30213377,"ECCENTRICITY":7.753e-5,"INCLINATION":53.1623,"RA_OF_ASC_NODE":321.0396,"ARG_OF_PERICENTER":86.5686,"MEAN_ANOMALY":273.5403,"EPHEMERIS_TYPE":0,"CLASSIFICATION_TYPE":"U","NORAD_CAT_ID":62780,"ELEMENT_SET_NO":999,"REV_AT_EPOCH":6452,"BSTAR":0.0012277943,"MEAN_MOTION_DOT":0.00036197,"MEAN_MOTION_DDOT":0},{"OBJECT_NAME":"SL-3 R\/B","OBJECT_ID":"1982-079B","EPOCH":"2026-03-09T22:18:18.158976","MEAN_MOTION":15.24805533,"ECCENTRICITY":0.00250364,"INCLINATION":81.1481,"RA_OF_ASC_NODE":192.7939,"ARG_OF_PERICENTER":164.0597,"MEAN_ANOMALY":196.143,"EPHEMERIS_TYPE":0,"CLASSIFICATION_TYPE":"U","NORAD_CAT_ID":13403,"ELEMENT_SET_NO":999,"REV_AT_EPOCH":37773,"BSTAR":0.00032485557,"MEAN_MOTION_DOT":8.157e-5,"MEAN_MOTION_DDOT":0}]
